QIANFAN-65              
1 62795U 25016L   25221.19067990  .00000139  00000+0  19610-3 0  9998
2 62795  88.9822 116.0358 0014281 354.9827   5.1179 13.50962044 30297
QIANFAN-66              
1 62796U 25016M   25221.14529408  .00000146  00000+0  20754-3 0  9990
2 62796  88.9841 115.9859 0015237 350.1753   9.9098 13.50957103 30338
QIANFAN-67              
1 62797U 25016N   25221.14950101  .00000143  00000+0  20299-3 0  9990
2 62797  88.9832 116.0234 0015467 356.8622   3.2429 13.50965826 30304
QIANFAN-68              
1 62798U 25016P   25221.07949904  .00000134  00000+0  18969-3 0  9993
2 62798  88.9835 116.0742 0016028 355.0842   5.0149 13.50963217 30278
QIANFAN-69              
1 62799U 25016Q   25221.08357605  .00000136  00000+0  19225-3 0  9994
2 62799  88.9814 115.9673 0016228 355.9700   4.1317 13.50958883 30316
QIANFAN-70              
1 62800U 25016R   25221.17416148  .00000139  00000+0  19715-3 0  9992
2 62800  88.9835 116.0698 0015452 346.5141  13.5596 13.50962640 30289
QIANFAN-71              
1 62801U 25016S   25221.09606453  .00000130  00000+0  18332-3 0  9999
2 62801  88.9829 116.0650 0016270 359.3786   0.7342 13.50962422 30271
QIANFAN-72              
1 62802U 25016T   25221.09181486  .00000126  00000+0  17695-3 0  9990
2 62802  88.9819 116.0863 0019889   4.3355 355.7964 13.50957838 30262
